[{"OBJECT_NAME":"STARLINK-35176","OBJECT_ID":"2025-211L","EPOCH":"2026-03-09T16:44:10.606272","MEAN_MOTION":15.05651401,"ECCENTRICITY":0.00011357,"INCLINATION":97.602,"RA_OF_ASC_NODE":114.0831,"ARG_OF_PERICENTER":119.4323,"MEAN_ANOMALY":240.7017,"EPHEMERIS_TYPE":0,"CLASSIFICATION_TYPE":"U","NORAD_CAT_ID":65662,"ELEMENT_SET_NO":999,"REV_AT_EPOCH":2704,"BSTAR":0.00026575317,"MEAN_MOTION_DOT":3.776e-5,"MEAN_MOTION_DDOT":0},{"OBJECT_NAME":"PSLV DEB","OBJECT_ID":"2001-049CY","EPOCH":"2026-03-09T18:20:37.296384","MEAN_MOTION":15.08389698,"ECCENTRICITY":0.00190632,"INCLINATION":97.9861,"RA_OF_ASC_NODE":156.2845,"ARG_OF_PERICENTER":340.3269,"MEAN_ANOMALY":19.722,"EPHEMERIS_TYPE":0,"CLASSIFICATION_TYPE":"U","NORAD_CAT_ID":27152,"ELEMENT_SET_NO":999,"REV_AT_EPOCH":30598,"BSTAR":0.00053695108,"MEAN_MOTION_DOT":8.318e-5,"MEAN_MOTION_DDOT":0}]
